"Apollo 11" "Sol/Earth/Moon"
{
	Class "spacecraft"
	Mesh "apollo.3ds"
	Radius 0.010

	EllipticalOrbit
	{
		Period 0.0873
		SemiMajorAxis 1922
		Eccentricity 0.00078
		Inclination 5
	}

	Albedo      0.10
}

